NORAD_CAT_ID,OBJECT_NAME,OBJECT_TYPE,EPOCH,MEAN_MOTION,ECCENTRICITY,INCLINATION,RA_OF_ASC_NODE,ARG_OF_PERICENTER,MEAN_ANOMALY,BSTAR,MEAN_MOTION_DOT,MEAN_MOTION_DDOT,TLE_LINE0,TLE_LINE1,TLE_LINE2,SEMIMAJOR_AXIS,PERIOD,APOGEE,PERIGEE,DECAYED
51894.0,STARLINK-3595,PAYLOAD,2024-01-14 03:11:48,15.08846161,0.00017,53.2173,285.6169,103.6982,256.4199,0.00022792,3.342e-05,0.0,0 STARLINK-3595,1 51894U 22022AU  24014.13319867  .00003342  00000-0  22792-3 0  9991,2 51894  53.2173 285.6169 0001700 103.6982 256.4199 15.08846161104713,6917.862,95.437,540.903,538.551,0.0
51894.0,STARLINK-3595,PAYLOAD,2024-01-14 22:16:24,15.08873224,0.0001388,53.2163,282.051,104.2825,255.8322,0.00052242,8.044e-05,0.0,0 STARLINK-3595,1 51894U 22022AU  24014.92806063  .00008044  00000-0  52242-3 0  9994,2 51894  53.2163 282.0510 0001388 104.2825 255.8322 15.08873224104832,6917.779,95.435,540.604,538.684,0.0
51894.0,STARLINK-3595,PAYLOAD,2024-01-15 03:02:33,15.08898631,0.0001506,53.2157,281.1597,100.2298,259.8864,0.0013728,0.00021663,0.0,0 STARLINK-3595,1 51894U 22022AU  24015.12677408  .00021663  00000-0  13728-2 0  9993,2 51894  53.2157 281.1597 0001506 100.2298 259.8864 15.08898631104869,6917.701,95.434,540.608,538.524,0.0
51894.0,STARLINK-3595,PAYLOAD,2024-01-16 02:53:21,15.08823269,0.0001516,53.215,276.6997,88.036,272.0806,9.7049e-05,1.256e-05,0.0,0 STARLINK-3595,1 51894U 22022AU  24016.12039350  .00001256  00000-0  97049-4 0  9998,2 51894  53.2150 276.6997 0001516  88.0360 272.0806 15.08823269105015,6917.932,95.439,540.845,538.748,0.0
51894.0,STARLINK-3595,PAYLOAD,2024-01-16 09:14:54,15.08811606,0.000164,53.2161,275.5102,81.808,278.3098,0.00028358,4.225e-05,0.0,0 STARLINK-3595,1 51894U 22022AU  24016.38535021  .00004225  00000-0  28358-3 0  9997,2 51894  53.2161 275.5102 0001640  81.8080 278.3098 15.08811606105059,6917.967,95.439,540.967,538.698,0.0
51894.0,STARLINK-3595,PAYLOAD,2024-01-16 21:58:00,15.08841944,0.00015,53.2173,273.1303,72.9989,287.1168,0.0012801,0.00020145,0.0,0 STARLINK-3595,1 51894U 22022AU  24016.91528197  .00020145  00000-0  12801-2 0  9996,2 51894  53.2173 273.1303 0001500  72.9989 287.1168 15.08841944105136,6917.874,95.437,540.777,538.702,0.0
51894.0,STARLINK-3595,PAYLOAD,2024-01-16 23:33:23,15.08849613,0.0001704,53.2159,272.8335,75.8657,284.2524,0.0016306,0.00025765,0.0,0 STARLINK-3595,1 51894U 22022AU  24016.98152124  .00025765  00000-0  16306-2 0  9993,2 51894  53.2159 272.8335 0001704  75.8657 284.2524 15.08849613105147,6917.851,95.437,540.895,538.537,0.0
51894.0,STARLINK-3595,PAYLOAD,2024-01-17 20:13:24,15.08852565,0.0001771,53.2161,268.9667,106.995,253.1236,0.0015271,0.00024108,0.0,0 STARLINK-3595,1 51894U 22022AU  24017.84264367  .00024108  00000-0  15271-2 0  9992,2 51894  53.2161 268.9667 0001771 106.9950 253.1236 15.08852565105279,6917.842,95.437,540.932,538.482,0.0
51894.0,STARLINK-3595,PAYLOAD,2024-01-17 21:48:47,15.08849974,0.0001732,53.2157,268.6687,112.583,247.5345,0.00128,0.00020148,0.0,0 STARLINK-3595,1 51894U 22022AU  24017.90888290  .00020148  00000-0  12800-2 0  9991,2 51894  53.2157 268.6687 0001732 112.5830 247.5345 15.08849974105289,6917.85,95.437,540.913,538.517,0.0
51894.0,STARLINK-3595,PAYLOAD,2024-01-18 02:34:56,15.08848538,0.0001587,53.2157,267.7792,96.8947,263.2226,0.00067753,0.00010514,0.0,0 STARLINK-3595,1 51894U 22022AU  24018.10760316  .00010514  00000-0  67753-3 0  9996,2 51894  53.2157 267.7792 0001587  96.8947 263.2226 15.08848538105319,6917.854,95.437,540.817,538.621,0.0
51894.0,STARLINK-3595,PAYLOAD,2024-01-18 20:04:11,15.08842119,0.0001825,53.2169,264.503,106.2664,253.8529,0.0008378,0.00013071,0.0,0 STARLINK-3595,1 51894U 22022AU  24018.83624672  .00013071  00000-0  83780-3 0  9999,2 51894  53.2169 264.5030 0001825 106.2664 253.8529 15.08842119105421,6917.874,95.437,541.001,538.476,0.0
51894.0,STARLINK-3595,PAYLOAD,2024-01-18 21:39:34,15.08842209,0.0001925,53.217,264.2064,101.5244,258.5965,0.0005196,7.992e-05,0.0,0 STARLINK-3595,1 51894U 22022AU  24018.90248705  .00007992  00000-0  51960-3 0  9996,2 51894  53.2170 264.2064 0001925 101.5244 258.5965 15.08842209105437,6917.874,95.437,541.07,538.407,0.0
51894.0,STARLINK-3595,PAYLOAD,2024-01-19 19:54:58,15.08844732,0.0001737,53.2154,260.0437,104.6301,255.4884,0.00027399,4.076e-05,0.0,0 STARLINK-3595,1 51894U 22022AU  24019.82984580  .00004076  00000-0  27399-3 0  9995,2 51894  53.2154 260.0437 0001737 104.6301 255.4884 15.08844732105570,6917.866,95.437,540.933,538.529,0.0
51894.0,STARLINK-3595,PAYLOAD,2024-01-19 23:05:44,15.08845212,0.0001621,53.2158,259.4496,99.2758,260.8418,0.0002354,3.461e-05,0.0,0 STARLINK-3595,1 51894U 22022AU  24019.96232552  .00003461  00000-0  23540-3 0  9996,2 51894  53.2158 259.4496 0001621  99.2758 260.8418 15.08845212105597,6917.864,95.437,540.851,538.608,0.0
51894.0,STARLINK-3595,PAYLOAD,2024-01-20 19:45:45,15.08837509,0.0001694,53.2162,255.5872,107.7099,252.4078,-2.2491e-05,-6.46e-06,0.0,0 STARLINK-3595,1 51894U 22022AU  24020.82344839 -.00000646  00000-0 -22491-4 0  9994,2 51894  53.2162 255.5872 0001694 107.7099 252.4078 15.08837509105724,6917.888,95.438,540.925,538.581,0.0
51894.0,STARLINK-3595,PAYLOAD,2024-01-20 22:56:32,15.08826602,0.0001706,53.2162,254.9948,104.478,255.6402,0.00039027,5.926e-05,0.0,0 STARLINK-3595,1 51894U 22022AU  24020.95593662  .00005926  00000-0  39027-3 0  9994,2 51894  53.2162 254.9948 0001706 104.4780 255.6402 15.08826602105746,6917.921,95.438,540.967,538.606,0.0
51894.0,STARLINK-3595,PAYLOAD,2024-01-21 00:31:56,15.08826759,0.0001686,53.216,254.6974,102.9511,257.167,0.00035069,5.296e-05,0.0,0 STARLINK-3595,1 51894U 22022AU  24021.02217673  .00005296  00000-0  35069-3 0  9990,2 51894  53.2160 254.6974 0001686 102.9511 257.1670 15.08826759105750,6917.921,95.438,540.952,538.62,0.0
51894.0,STARLINK-3595,PAYLOAD,2024-01-21 19:36:32,15.08845221,0.0001496,53.2159,251.129,99.4903,260.6258,0.00013955,1.934e-05,0.0,0 STARLINK-3595,1 51894U 22022AU  24021.81704732  .00001934  00000-0  13955-3 0  9999,2 51894  53.2159 251.1290 0001496  99.4903 260.6258 15.08845221105874,6917.864,95.437,540.764,538.695,0.0
51894.0,STARLINK-3595,PAYLOAD,2024-01-21 22:47:19,15.08847742,0.0001477,53.2155,250.5338,96.5498,263.5662,0.00016704,2.372e-05,0.0,0 STARLINK-3595,1 51894U 22022AU  24021.94952558  .00002372  00000-0  16704-3 0  9996,2 51894  53.2155 250.5338 0001477  96.5498 263.5662 15.08847742105895,6917.857,95.437,540.743,538.7,0.0
51894.0,STARLINK-3595,PAYLOAD,2024-01-22 00:22:42,15.08850069,0.000148,53.2156,250.234,96.6194,263.4967,0.00019803,2.866e-05,0.0,0 STARLINK-3595,1 51894U 22022AU  24022.01576397  .00002866  00000-0  19803-3 0  9999,2 51894  53.2156 250.2340 0001480  96.6194 263.4967 15.08850069105909,6917.85,95.437,540.738,538.691,0.0
51894.0,STARLINK-3595,PAYLOAD,2024-01-22 19:27:20,15.08839074,0.0001509,53.2163,246.6552,83.3512,276.7652,6.6601e-05,7.72e-06,0.0,0 STARLINK-3595,1 51894U 22022AU  24022.81065112  .00000772  00000-0  66601-4 0  9998,2 51894  53.2163 246.6552 0001509  83.3512 276.7652 15.08839074106025,6917.883,95.438,540.792,538.704,0.0
51894.0,STARLINK-3595,PAYLOAD,2024-01-22 21:02:43,15.08840187,0.0001669,53.2161,246.3616,82.4792,277.6389,9.0393e-05,1.151e-05,0.0,0 STARLINK-3595,1 51894U 22022AU  24022.87689115  .00001151  00000-0  90393-4 0  9996,2 51894  53.2161 246.3616 0001669  82.4792 277.6389 15.08840187106033,6917.88,95.438,540.899,538.59,0.0
51894.0,STARLINK-3595,PAYLOAD,2024-01-23 20:53:29,15.08851113,0.0001657,53.2166,241.897,79.6895,280.4283,0.00010826,1.436e-05,0.0,0 STARLINK-3595,1 51894U 22022AU  24023.87048454  .00001436  00000-0  10826-3 0  9990,2 51894  53.2166 241.8970 0001657  79.6895 280.4283 15.08851113106182,6917.846,95.437,540.858,538.565,0.0
51894.0,STARLINK-3595,PAYLOAD,2024-01-24 19:08:54,15.08842106,0.0001844,53.215,237.7317,63.2787,296.8394,7.3816e-05,8.87e-06,0.0,0 STARLINK-3595,1 51894U 22022AU  24024.79785016  .00000887  00000-0  73816-4 0  9992,2 51894  53.2150 237.7317 0001844  63.2787 296.8394 15.08842106106323,6917.874,95.437,541.015,538.463,0.0
51894.0,STARLINK-3595,PAYLOAD,2024-01-24 20:44:17,15.08839873,0.0001515,53.2145,237.4474,112.057,248.0583,3.372e-05,2.49e-06,0.0,0 STARLINK-3595,1 51894U 22022AU  24024.86408877  .00000249  00000-0  33720-4 0  9999,2 51894  53.2145 237.4474 0001515 112.0570 248.0583 15.08839873106333,6917.881,95.438,540.794,538.698,0.0
51894.0,STARLINK-3595,PAYLOAD,2024-01-25 20:35:04,15.08842215,0.0001269,53.2155,232.9863,97.3787,262.7349,-2.9772e-05,-7.62e-06,0.0,0 STARLINK-3595,1 51894U 22022AU  24025.85769173 -.00000762  00000-0 -29772-4 0  9992,2 51894  53.2155 232.9863 0001269  97.3787 262.7349 15.08842215106480,6917.874,95.437,540.616,538.861,0.0
51894.0,STARLINK-3595,PAYLOAD,2024-01-26 18:50:28,15.08843008,0.000129,53.2155,228.8224,102.613,257.5007,0.0001762,2.518e-05,0.0,0 STARLINK-3595,1 51894U 22022AU  24026.78504679  .00002518  00000-0  17620-3 0  9990,2 51894  53.2155 228.8224 0001290 102.6130 257.5007 15.08843008106621,6917.871,95.437,540.629,538.844,0.0
51894.0,STARLINK-3595,PAYLOAD,2024-01-27 18:41:15,15.08839635,0.0001226,53.2158,224.3622,89.544,270.5692,7.3286e-05,8.79e-06,0.0,0 STARLINK-3595,1 51894U 22022AU  24027.77865369  .00000879  00000-0  73286-4 0  9995,2 51894  53.2158 224.3622 0001226  89.5440 270.5692 15.08839635106775,6917.882,95.438,540.595,538.898,0.0
51894.0,STARLINK-3595,PAYLOAD,2024-01-27 21:52:01,15.08838928,0.0001232,53.2158,223.7673,91.8339,268.2794,5.9847e-05,6.65e-06,0.0,0 STARLINK-3595,1 51894U 22022AU  24027.91113346  .00000665  00000-0  59847-4 0  9992,2 51894  53.2158 223.7673 0001232  91.8339 268.2794 15.08838928106797,6917.884,95.438,540.601,538.896,0.0
51894.0,STARLINK-3595,PAYLOAD,2024-01-28 20:07:25,15.08838352,0.0001294,53.216,219.6059,94.4161,265.6979,4.0557e-05,3.58e-06,0.0,0 STARLINK-3595,1 51894U 22022AU  24028.83849532  .00000358  00000-0  40557-4 0  9994,2 51894  53.2160 219.6059 0001294  94.4161 265.6979 15.08838352106935,6917.885,95.438,540.646,538.855,0.0
